{"type": "FeatureCollection", "features": [ {"type": "Feature", "properties": {"norad_id": 34682, "name": "COSMOS 2251 DEB", "group": "cosmos-2251-debris", "lat": -72.31635429611954, "lon": -27.388937677058358, "alt_km": 693.8321404425733, "timestamp": "2025-12-09T16:56:36.969208+00:00", "meta": {"OBJECT_NAME": "COSMOS 2251 DEB", "OBJECT_ID": "1993-036YC", "EPOCH": "2025-12-08T13:28:57.741024", "MEAN_MOTION": 14.58847249, "ECCENTRICITY": 0.0018543, "INCLINATION": 74.04, "RA_OF_ASC_NODE": 90.9444, "ARG_OF_PERICENTER": 224.1225, "MEAN_ANOMALY": 151.2779, "EPHEMERIS_TYPE": 0, "CLASSIFICATION_TYPE": "U", "NORAD_CAT_ID": 34682, "ELEMENT_SET_NO": 999, "REV_AT_EPOCH": 88625, "BSTAR": 0.0013547, "MEAN_MOTION_DOT": 6.331e-05, "MEAN_MOTION_DDOT": 0}, "tle": {"line1": "1 34682U 93036YC  25342.56177941  .00006331  00000+0  13547-2 0  9994", "line2": "2 34682  74.0400  90.9444 0018543 224.1225 151.2779 14.58847249886252"}}, "geometry": {"type": "Point", "coordinates": [-27.388937677058358, -72.31635429611954]}}, {"type": "Feature", "properties": {"norad_id": 34683, "name": "COSMOS 2251 DEB", "group": "cosmos-2251-debris", "lat": -5.922241388974705, "lon": 96.39716865547098, "alt_km": 692.4957431980056, "timestamp": "2025-12-09T16:56:36.969218+00:00", "meta": {"OBJECT_NAME": "COSMOS 2251 DEB", "OBJECT_ID": "1993-036YD", "EPOCH": "2025-12-09T09:01:51.949344", "MEAN_MOTION": 14.64408596, "ECCENTRICITY": 0.0018505, "INCLINATION": 74.0289, "RA_OF_ASC_NODE": 98.7331, "ARG_OF_PERICENTER": 213.5344, "MEAN_ANOMALY": 202.9303, "EPHEMERIS_TYPE": 0, "CLASSIFICATION_TYPE": "U", "NORAD_CAT_ID": 34683, "ELEMENT_SET_NO": 999, "REV_AT_EPOCH": 88299, "BSTAR": 0.0019964, "MEAN_MOTION_DOT": 0.00010571, "MEAN_MOTION_DDOT": 0}, "tle": {"line1": "1 34683U 93036YD  25343.37629571  .00010571  00000+0  19964-2 0  9996", "line2": "2 34683  74.0289  98.7331 0018505 213.5344 202.9303 14.64408596882990"}}, "geometry": {"type": "Point", "coordinates": [96.39716865547098, -5.922241388974705]}}, {"type": "Feature", "properties": {"norad_id": 34685, "name": "COSMOS 2251 DEB", "group": "cosmos-2251-debris", "lat": -38.679994738584945, "lon": -12.195101274665966, "alt_km": 699.4961416738561, "timestamp": "2025-12-09T16:56:36.969229+00:00", "meta": {"OBJECT_NAME": "COSMOS 2251 DEB", "OBJECT_ID": "1993-036YF", "EPOCH": "2025-12-09T04:55:35.181120", "MEAN_MOTION": 14.57453768, "ECCENTRICITY": 0.00143121, "INCLINATION": 74.029, "RA_OF_ASC_NODE": 155.5021, "ARG_OF_PERICENTER": 259.5075, "MEAN_ANOMALY": 214.9506, "EPHEMERIS_TYPE": 0, "CLASSIFICATION_TYPE": "U", "NORAD_CAT_ID": 34685, "ELEMENT_SET_NO": 999, "REV_AT_EPOCH": 88480, "BSTAR": 0.0012725599, "MEAN_MOTION_DOT": 5.762e-05, "MEAN_MOTION_DDOT": 0}, "tle": {"line1": "1 34685U 93036YF  25343.20526830  .00005762  00000+0  12726-2 0  9999", "line2": "2 34685  74.0290 155.5021 0014312 259.5075 214.9506 14.57453768884808"}}, "geometry": {"type": "Point", "coordinates": [-12.195101274665966, -38.679994738584945]}}, {"type": "Feature", "properties": {"norad_id": 34689, "name": "COSMOS 2251 DEB", "group": "cosmos-2251-debris", "lat": -70.69687297932052, "lon": 174.16496524863348, "alt_km": 726.7631963072063, "timestamp": "2025-12-09T16:56:36.969239+00:00", "meta": {"OBJECT_NAME": "COSMOS 2251 DEB", "OBJECT_ID": "1993-036YK", "EPOCH": "2025-12-08T17:38:51.976320", "MEAN_MOTION": 14.0436155, "ECCENTRICITY": 0.02286553, "INCLINATION": 74.0928, "RA_OF_ASC_NODE": 230.3585, "ARG_OF_PERICENTER": 300.2116, "MEAN_ANOMALY": 116.1609, "EPHEMERIS_TYPE": 0, "CLASSIFICATION_TYPE": "U", "NORAD_CAT_ID": 34689, "ELEMENT_SET_NO": 999, "REV_AT_EPOCH": 84285, "BSTAR": 0.0057567804, "MEAN_MOTION_DOT": 0.00011559, "MEAN_MOTION_DDOT": 0}, "tle": {"line1": "1 34689U 93036YK  25342.73532380  .00011559  00000+0  57568-2 0  9991", "line2": "2 34689  74.0928 230.3585 0228655 300.2116 116.1609 14.04361550842859"}}, "geometry": {"type": "Point", "coordinates": [174.16496524863348, -70.69687297932052]}}, {"type": "Feature", "properties": {"norad_id": 34721, "name": "COSMOS 2251 DEB", "group": "cosmos-2251-debris", "lat": 34.95908602288553, "lon": -16.855640234711164, "alt_km": 994.7879527947289, "timestamp": "2025-12-09T16:56:36.969249+00:00", "meta": {"OBJECT_NAME": "COSMOS 2251 DEB", "OBJECT_ID": "1993-036YP", "EPOCH": "2025-12-08T23:44:20.442336", "MEAN_MOTION": 13.96821392, "ECCENTRICITY": 0.02238657, "INCLINATION": 73.9235, "RA_OF_ASC_NODE": 332.7561, "ARG_OF_PERICENTER": 272.3834, "MEAN_ANOMALY": 118.8256, "EPHEMERIS_TYPE": 0, "CLASSIFICATION_TYPE": "U", "NORAD_CAT_ID": 34721, "ELEMENT_SET_NO": 999, "REV_AT_EPOCH": 85097, "BSTAR": 0.0019617403, "MEAN_MOTION_DOT": 3.345e-05, "MEAN_MOTION_DDOT": 0}, "tle": {"line1": "1 34721U 93036YP  25342.98912549  .00003345  00000+0  19617-2 0  9991", "line2": "2 34721  73.9235 332.7561 0223865 272.3834 118.8256 13.96821392850974"}}, "geometry": {"type": "Point", "coordinates": [-16.855640234711164, 34.95908602288553]}}, {"type": "Feature", "properties": {"norad_id": 34722, "name": "COSMOS 2251 DEB", "group": "cosmos-2251-debris", "lat": 73.01393331037852, "lon": 90.18320367988468, "alt_km": 965.258060223231, "timestamp": "2025-12-09T16:56:36.969259+00:00", "meta": {"OBJECT_NAME": "COSMOS 2251 DEB", "OBJECT_ID": "1993-036YQ", "EPOCH": "2025-12-09T10:24:51.303168", "MEAN_MOTION": 14.11918789, "ECCENTRICITY": 0.0167279, "INCLINATION": 73.8728, "RA_OF_ASC_NODE": 341.9641, "ARG_OF_PERICENTER": 268.0911, "MEAN_ANOMALY": 245.2382, "EPHEMERIS_TYPE": 0, "CLASSIFICATION_TYPE": "U", "NORAD_CAT_ID": 34722, "ELEMENT_SET_NO": 999, "REV_AT_EPOCH": 86198, "BSTAR": 0.0014193, "MEAN_MOTION_DOT": 2.934e-05, "MEAN_MOTION_DDOT": 0}, "tle": {"line1": "1 34722U 93036YQ  25343.43392712  .00002934  00000+0  14193-2 0  9994", "line2": "2 34722  73.8728 341.9641 0167279 268.0911 245.2382 14.11918789861989"}}, "geometry": {"type": "Point", "coordinates": [90.18320367988468, 73.01393331037852]}}, {"type": "Feature", "properties": {"norad_id": 34726, "name": "COSMOS 2251 DEB", "group": "cosmos-2251-debris", "lat": -33.48290921573781, "lon": -18.808311232141083, "alt_km": 730.5374634461041, "timestamp": "2025-12-09T16:56:36.969269+00:00", "meta": {"OBJECT_NAME": "COSMOS 2251 DEB", "OBJECT_ID": "1993-036YU", "EPOCH": "2025-12-09T07:14:03.297984", "MEAN_MOTION": 14.59462245, "ECCENTRICITY": 0.0042153, "INCLINATION": 74.0291, "RA_OF_ASC_NODE": 352.8826, "ARG_OF_PERICENTER": 144.7976, "MEAN_ANOMALY": 215.5988, "EPHEMERIS_TYPE": 0, "CLASSIFICATION_TYPE": "U", "NORAD_CAT_ID": 34726, "ELEMENT_SET_NO": 999, "REV_AT_EPOCH": 88452, "BSTAR": 0.00064817, "MEAN_MOTION_DOT": 3.084e-05, "MEAN_MOTION_DDOT": 0}, "tle": {"line1": "1 34726U 93036YU  25343.30142706  .00003084  00000+0  64817-3 0  9996", "line2": "2 34726  74.0291 352.8826 0042153 144.7976 215.5988 14.59462245884521"}}, "geometry": {"type": "Point", "coordinates": [-18.808311232141083, -33.48290921573781]}}, {"type": "Feature", "properties": {"norad_id": 34728, "name": "COSMOS 2251 DEB", "group": "cosmos-2251-debris", "lat": 70.90060738494996, "lon": -46.46877091790131, "alt_km": 624.8136967907294, "timestamp": "2025-12-09T16:56:36.969279+00:00", "meta": {"OBJECT_NAME": "COSMOS 2251 DEB", "OBJECT_ID": "1993-036YW", "EPOCH": "2025-12-09T11:41:21.069024", "MEAN_MOTION": 14.70794927, "ECCENTRICITY": 0.0040967, "INCLINATION": 74.0171, "RA_OF_ASC_NODE": 258.0914, "ARG_OF_PERICENTER": 56.6298, "MEAN_ANOMALY": 303.8783, "EPHEMERIS_TYPE": 0, "CLASSIFICATION_TYPE": "U", "NORAD_CAT_ID": 34728, "ELEMENT_SET_NO": 999, "REV_AT_EPOCH": 88752, "BSTAR": 0.001239, "MEAN_MOTION_DOT": 7.642e-05, "MEAN_MOTION_DDOT": 0}, "tle": {"line1": "1 34728U 93036YW  25343.48704941  .00007642  00000+0  12390-2 0  9994", "line2": "2 34728  74.0171 258.0914 0040967  56.6298 303.8783 14.70794927887529"}}, "geometry": {"type": "Point", "coordinates": [-46.46877091790131, 70.90060738494996]}}, {"type": "Feature", "properties": {"norad_id": 34729, "name": "COSMOS 2251 DEB", "group": "cosmos-2251-debris", "lat": -35.54496292820646, "lon": -7.376800038477315, "alt_km": 634.8670219501537, "timestamp": "2025-12-09T16:56:36.969290+00:00", "meta": {"OBJECT_NAME": "COSMOS 2251 DEB", "OBJECT_ID": "1993-036YX", "EPOCH": "2025-12-09T02:47:26.996352", "MEAN_MOTION": 14.82631186, "ECCENTRICITY": 0.00118898, "INCLINATION": 74.0182, "RA_OF_ASC_NODE": 5.6061, "ARG_OF_PERICENTER": 126.9078, "MEAN_ANOMALY": 289.8188, "EPHEMERIS_TYPE": 0, "CLASSIFICATION_TYPE": "U", "NORAD_CAT_ID": 34729, "ELEMENT_SET_NO": 999, "REV_AT_EPOCH": 88404, "BSTAR": 0.0021138717, "MEAN_MOTION_DOT": 0.0001706, "MEAN_MOTION_DDOT": 0}, "tle": {"line1": "1 34729U 93036YX  25343.11628468  .00017060  00000+0  21139-2 0  9990", "line2": "2 34729  74.0182   5.6061 0011889 126.9078 289.8188 14.82631186884045"}}, "geometry": {"type": "Point", "coordinates": [-7.376800038477315, -35.54496292820646]}}, {"type": "Feature", "properties": {"norad_id": 34732, "name": "COSMOS 2251 DEB", "group": "cosmos-2251-debris", "lat": -33.80016871676047, "lon": -70.10386505793512, "alt_km": 716.7626830022991, "timestamp": "2025-12-09T16:56:36.969300+00:00", "meta": {"OBJECT_NAME": "COSMOS 2251 DEB", "OBJECT_ID": "1993-036ZA", "EPOCH": "2025-12-09T09:34:54.064704", "MEAN_MOTION": 14.47295119, "ECCENTRICITY": 0.004045, "INCLINATION": 74.045, "RA_OF_ASC_NODE": 99.4278, "ARG_OF_PERICENTER": 251.0632, "MEAN_ANOMALY": 166.8755, "EPHEMERIS_TYPE": 0, "CLASSIFICATION_TYPE": "U", "NORAD_CAT_ID": 34732, "ELEMENT_SET_NO": 999, "REV_AT_EPOCH": 88095, "BSTAR": 0.00029203, "MEAN_MOTION_DOT": 1.052e-05, "MEAN_MOTION_DDOT": 0}, "tle": {"line1": "1 34732U 93036ZA  25343.39923686  .00001052  00000+0  29203-3 0  9999", "line2": "2 34732  74.0450  99.4278 0040450 251.0632 166.8755 14.47295119880953"}}, "geometry": {"type": "Point", "coordinates": [-70.10386505793512, -33.80016871676047]}}]}